start=new Date('2022-03-08T00:00:00.000Z').valueOf();
sats=[{"PERIOD":"95.593","MEAN_ANOMALY":"301.2496","ARG_OF_PERICENTER":"58.8676","FILE":"3349821","RA_OF_ASC_NODE":"358.9189","OBJECT_TYPE":"PAYLOAD","MEAN_MOTION_DDOT":"0.0000000000000","CENTER_NAME":"EARTH","MEAN_ELEMENT_THEORY":"SGP4","INCLINATION":"53.0564","OBJECT_NAME":"STARLINK-2369","CLASSIFICATION_TYPE":"U","TLE_LINE2":"2 47909  53.0564 358.9189 0001866  58.8676 301.2496 15.06384689 55856","EPHEMERIS_TYPE":"0","RCS_SIZE":"LARGE","BSTAR":"-0.00019338000000","TIME_SYSTEM":"UTC","APOAPSIS":"548.553","TLE_LINE1":"1 47909U 21021BB  22066.77176499 -.00003160  00000-0 -19338-3 0  9990","GP_ID":"198188956","COUNTRY_CODE":"US","ECCENTRICITY":"0.00018660","EPOCH":"2022-03-07T18:31:20.495136","DECAY_DATE":null,"NORAD_CAT_ID":"47909","PERIAPSIS":"545.968","REV_AT_EPOCH":"5585","LAUNCH_DATE":"2021-03-14","SEMIMAJOR_AXIS":"6925.395","REF_FRAME":"TEME","ELEMENT_SET_NO":"999","MEAN_MOTION":"15.06384689","SITE":"AFETR","MEAN_MOTION_DOT":"-0.00003160","OBJECT_ID":"2021-021BB"},{"MEAN_ANOMALY":"20.6293","PERIOD":"95.566","ARG_OF_PERICENTER":"339.4604","OBJECT_TYPE":"PAYLOAD","RA_OF_ASC_NODE":"359.9351","MEAN_MOTION_DDOT":"0.0000000000000","FILE":"3349821","CLASSIFICATION_TYPE":"U","OBJECT_NAME":"STARLINK-2370","INCLINATION":"53.0573","CENTER_NAME":"EARTH","MEAN_ELEMENT_THEORY":"SGP4","RCS_SIZE":"LARGE","EPHEMERIS_TYPE":"0","BSTAR":"0.00367170000000","TLE_LINE2":"2 47910  53.0573 359.9351 0002272 339.4604  20.6293 15.06805341 55671","TIME_SYSTEM":"UTC","APOAPSIS":"547.545","EPOCH":"2022-03-07T13:00:23.631552","ECCENTRICITY":"0.00022720","COUNTRY_CODE":"US","TLE_LINE1":"1 47910U 21021BC  22066.54194018  .00055447  00000-0  36717-2 0  9996","GP_ID":"198188707","PERIAPSIS":"544.398","REV_AT_EPOCH":"5567","DECAY_DATE":null,"NORAD_CAT_ID":"47910","MEAN_MOTION_DOT":"0.00055447","OBJECT_ID":"2021-021BC","REF_FRAME":"TEME","SEMIMAJOR_AXIS":"6924.107","LAUNCH_DATE":"2021-03-14","SITE":"AFETR","MEAN_MOTION":"15.06805341","ELEMENT_SET_NO":"999"},{"DECAY_DATE":null,"NORAD_CAT_ID":"47911","PERIAPSIS":"546.157","REV_AT_EPOCH":"5534","REF_FRAME":"TEME","SEMIMAJOR_AXIS":"6925.416","LAUNCH_DATE":"2021-03-14","SITE":"AFETR","ELEMENT_SET_NO":"999","MEAN_MOTION":"15.06378065","OBJECT_ID":"2021-021BD","MEAN_MOTION_DOT":"-0.00003648","TIME_SYSTEM":"UTC","APOAPSIS":"548.404","TLE_LINE1":"1 47911U 21021BD  22066.86711646 -.00003648  00000-0 -22629-3 0  9990","COUNTRY_CODE":"US","GP_ID":"198187455","EPOCH":"2022-03-07T20:48:38.862144","ECCENTRICITY":"0.00016220","OBJECT_NAME":"STARLINK-2371","INCLINATION":"53.0559","CENTER_NAME":"EARTH","MEAN_ELEMENT_THEORY":"SGP4","CLASSIFICATION_TYPE":"U","TLE_LINE2":"2 47911  53.0559  13.4888 0001622  65.9888 294.1271 15.06378065 55342","RCS_SIZE":"LARGE","EPHEMERIS_TYPE":"0","BSTAR":"-0.00022629000000","MEAN_ANOMALY":"294.1271","PERIOD":"95.594","ARG_OF_PERICENTER":"65.9888","FILE":"3349821","RA_OF_ASC_NODE":"13.4888","OBJECT_TYPE":"PAYLOAD","MEAN_MOTION_DDOT":"0.0000000000000"},{"TLE_LINE2":"2 47912  53.0570 358.7746 0001870  58.9519 301.1654 15.06396194 55541","BSTAR":"-0.00000307070000","EPHEMERIS_TYPE":"0","RCS_SIZE":"LARGE","MEAN_ELEMENT_THEORY":"SGP4","CENTER_NAME":"EARTH","INCLINATION":"53.0570","OBJECT_NAME":"STARLINK-2372","CLASSIFICATION_TYPE":"U","FILE":"3349821","MEAN_MOTION_DDOT":"0.0000000000000","RA_OF_ASC_NODE":"358.7746","OBJECT_TYPE":"PAYLOAD","ARG_OF_PERICENTER":"58.9519","PERIOD":"95.592","MEAN_ANOMALY":"301.1654","MEAN_MOTION":"15.06396194","ELEMENT_SET_NO":"999","SITE":"AFETR","LAUNCH_DATE":"2021-03-14","REF_FRAME":"TEME","SEMIMAJOR_AXIS":"6925.360","MEAN_MOTION_DOT":"-0.00000327","OBJECT_ID":"2021-021BE","NORAD_CAT_ID":"47912","DECAY_DATE":null,"REV_AT_EPOCH":"5554","PERIAPSIS":"545.930","GP_ID":"198188205","TLE_LINE1":"1 47912U 21021BE  22066.80123624 -.00000327  00000-0 -30707-5 0  9997","COUNTRY_CODE":"US","ECCENTRICITY":"0.00018700","EPOCH":"2022-03-07T19:13:46.811136","APOAPSIS":"548.520","TIME_SYSTEM":"UTC"},{"TIME_SYSTEM":"UTC","APOAPSIS":"548.484","EPOCH":"2022-03-07T13:31:23.987712","ECCENTRICITY":"0.00018820","GP_ID":"198188457","TLE_LINE1":"1 47913U 21021BF  22066.56347208  .00014778  00000-0  10086-2 0  9995","COUNTRY_CODE":"US","REV_AT_EPOCH":"5553","PERIAPSIS":"545.877","DECAY_DATE":null,"NORAD_CAT_ID":"47913","MEAN_MOTION_DOT":"0.00014778","OBJECT_ID":"2021-021BF","REF_FRAME":"TEME","SEMIMAJOR_AXIS":"6925.316","LAUNCH_DATE":"2021-03-14","SITE":"AFETR","MEAN_MOTION":"15.06410703","ELEMENT_SET_NO":"999","MEAN_ANOMALY":"314.1930","PERIOD":"95.591","ARG_OF_PERICENTER":"45.9213","RA_OF_ASC_NODE":"9.8585","OBJECT_TYPE":"PAYLOAD","MEAN_MOTION_DDOT":"0.0000000000000","FILE":"3349821","CLASSIFICATION_TYPE":"U","INCLINATION":"53.0556","OBJECT_NAME":"STARLINK-2374","CENTER_NAME":"EARTH","MEAN_ELEMENT_THEORY":"SGP4","RCS_SIZE":"LARGE","EPHEMERIS_TYPE":"0","BSTAR":"0.00100860000000","TLE_LINE2":"2 47913  53.0556   9.8585 0001882  45.9213 314.1930 15.06410703 55534"},{"MEAN_ELEMENT_THEORY":"SGP4","CENTER_NAME":"EARTH","OBJECT_NAME":"STARLINK-2375","INCLINATION":"53.0538","CLASSIFICATION_TYPE":"U","TLE_LINE2":"2 47914  53.0538   9.8647 0001878  61.6957 298.4222 15.06412117 55527","BSTAR":"0.00005384300000","EPHEMERIS_TYPE":"0","RCS_SIZE":"LARGE","ARG_OF_PERICENTER":"61.6957","PERIOD":"95.591","MEAN_ANOMALY":"298.4222","FILE":"3349821","MEAN_MOTION_DDOT":"0.0000000000000","RA_OF_ASC_NODE":"9.8647","OBJECT_TYPE":"PAYLOAD","NORAD_CAT_ID":"47914","DECAY_DATE":null,"PERIAPSIS":"545.876","REV_AT_EPOCH":"5552","ELEMENT_SET_NO":"999","MEAN_MOTION":"15.06412117","SITE":"AFETR","LAUNCH_DATE":"2021-03-14","REF_FRAME":"TEME","SEMIMAJOR_AXIS":"6925.311","MEAN_MOTION_DOT":"0.00000521","OBJECT_ID":"2021-021BG","APOAPSIS":"548.477","TIME_SYSTEM":"UTC","COUNTRY_CODE":"US","TLE_LINE1":"1 47914U 21021BG  22066.56071435  .00000521  00000-0  53843-4 0  9993","GP_ID":"198189207","ECCENTRICITY":"0.00018780","EPOCH":"2022-03-07T13:27:25.719840"},{"PERIOD":"95.592","MEAN_ANOMALY":"293.9149","ARG_OF_PERICENTER":"66.2006","OBJECT_TYPE":"PAYLOAD","RA_OF_ASC_NODE":"4.8735","MEAN_MOTION_DDOT":"0.0000000000000","FILE":"3349821","CLASSIFICATION_TYPE":"U","CENTER_NAME":"EARTH","MEAN_ELEMENT_THEORY":"SGP4","OBJECT_NAME":"STARLINK-2376","INCLINATION":"53.0568","EPHEMERIS_TYPE":"0","RCS_SIZE":"LARGE","BSTAR":"0.00009324100000","TLE_LINE2":"2 47915  53.0568   4.8735 0001590  66.2006 293.9149 15.06403396 55607","TIME_SYSTEM":"UTC","APOAPSIS":"548.304","ECCENTRICITY":"0.00015900","EPOCH":"2022-03-07T13:25:27.459840","TLE_LINE1":"1 47915U 21021BH  22066.55934560  .00001108  00000-0  93241-4 0  9998","GP_ID":"198187955","COUNTRY_CODE":"US","REV_AT_EPOCH":"5560","PERIAPSIS":"546.102","DECAY_DATE":null,"NORAD_CAT_ID":"47915","OBJECT_ID":"2021-021BH","MEAN_MOTION_DOT":"0.00001108","LAUNCH_DATE":"2021-03-14","REF_FRAME":"TEME","SEMIMAJOR_AXIS":"6925.338","ELEMENT_SET_NO":"999","MEAN_MOTION":"15.06403396","SITE":"AFETR"},{"RCS_SIZE":"LARGE","EPHEMERIS_TYPE":"0","BSTAR":"-0.00017795000000","TLE_LINE2":"2 47916  53.0586 348.7877 0001782  65.0788 295.0386 15.06388609 55821","CLASSIFICATION_TYPE":"U","OBJECT_NAME":"STARLINK-2378","INCLINATION":"53.0586","MEAN_ELEMENT_THEORY":"SGP4","CENTER_NAME":"EARTH","OBJECT_TYPE":"PAYLOAD","RA_OF_ASC_NODE":"348.7877","MEAN_MOTION_DDOT":"0.0000000000000","FILE":"3349821","MEAN_ANOMALY":"295.0386","PERIOD":"95.593","ARG_OF_PERICENTER":"65.0788","MEAN_MOTION_DOT":"-0.00002930","OBJECT_ID":"2021-021BJ","REF_FRAME":"TEME","SEMIMAJOR_AXIS":"6925.383","LAUNCH_DATE":"2021-03-14","SITE":"AFETR","ELEMENT_SET_NO":"999","MEAN_MOTION":"15.06388609","REV_AT_EPOCH":"5582","PERIAPSIS":"546.014","DECAY_DATE":null,"NORAD_CAT_ID":"47916","EPOCH":"2022-03-07T19:09:48.530304","ECCENTRICITY":"0.00017820","COUNTRY_CODE":"US","TLE_LINE1":"1 47916U 21021BJ  22066.79847836 -.00002930  00000-0 -17795-3 0  9999","GP_ID":"198187706","TIME_SYSTEM":"UTC","APOAPSIS":"548.483"},{"OBJECT_ID":"2021-021BK","MEAN_MOTION_DOT":"-0.00000309","ELEMENT_SET_NO":"999","MEAN_MOTION":"15.06379054","SITE":"AFETR","LAUNCH_DATE":"2021-03-14","SEMIMAJOR_AXIS":"6925.413","REF_FRAME":"TEME","REV_AT_EPOCH":"5567","PERIAPSIS":"546.269","NORAD_CAT_ID":"47917","DECAY_DATE":null,"ECCENTRICITY":"0.00014560","EPOCH":"2022-03-07T19:19:06.269952","GP_ID":"198188957","TLE_LINE1":"1 47917U 21021BK  22066.80493368 -.00000309  00000-0 -18677-5 0  9999","COUNTRY_CODE":"US","APOAPSIS":"548.286","TIME_SYSTEM":"UTC","BSTAR":"-0.00000186770000","EPHEMERIS_TYPE":"0","RCS_SIZE":"LARGE","TLE_LINE2":"2 47917  53.0553 358.7778 0001456  63.0155 297.0982 15.06379054 55672","CLASSIFICATION_TYPE":"U","MEAN_ELEMENT_THEORY":"SGP4","CENTER_NAME":"EARTH","OBJECT_NAME":"STARLINK-2397","INCLINATION":"53.0553","MEAN_MOTION_DDOT":"0.0000000000000","RA_OF_ASC_NODE":"358.7778","OBJECT_TYPE":"PAYLOAD","FILE":"3349821","ARG_OF_PERICENTER":"63.0155","PERIOD":"95.593","MEAN_ANOMALY":"297.0982"},{"TLE_LINE2":"2 47918  53.0562 358.7391 0001368  71.3380 288.7757 15.06392015 55701","EPHEMERIS_TYPE":"0","RCS_SIZE":"LARGE","BSTAR":"-0.00015553000000","MEAN_ELEMENT_THEORY":"SGP4","CENTER_NAME":"EARTH","INCLINATION":"53.0562","OBJECT_NAME":"STARLINK-2398","CLASSIFICATION_TYPE":"U","FILE":"3349821","OBJECT_TYPE":"PAYLOAD","RA_OF_ASC_NODE":"358.7391","MEAN_MOTION_DDOT":"0.0000000000000","PERIOD":"95.593","MEAN_ANOMALY":"288.7757","ARG_OF_PERICENTER":"71.3380","LAUNCH_DATE":"2021-03-14","SEMIMAJOR_AXIS":"6925.373","REF_FRAME":"TEME","MEAN_MOTION":"15.06392015","ELEMENT_SET_NO":"999","SITE":"AFETR","OBJECT_ID":"2021-021BL","MEAN_MOTION_DOT":"-0.00002597","DECAY_DATE":null,"NORAD_CAT_ID":"47918","PERIAPSIS":"546.291","REV_AT_EPOCH":"5570","TLE_LINE1":"1 47918U 21021BL  22066.81230130 -.00002597  00000-0 -15553-3 0  9996","COUNTRY_CODE":"US","GP_ID":"198188708","ECCENTRICITY":"0.00013680","EPOCH":"2022-03-07T19:29:42.832320","TIME_SYSTEM":"UTC","APOAPSIS":"548.185"}];
